[
    {
        "Altitude(m)": 566125.6880579481,
        "Argument of Periapsis(deg)": -0.037671934638287344,
        "Eccentricity": 0.0,
        "Inclination(deg)": 97.0,
        "Latitude(deg)": 21.14999181412154,
        "Longitude(deg)": -131.22071935393737,
        "Mean Anomaly(deg)": 158.73053878197916,
        "RAAN(deg)": 150.00991175603087,
        "Satellite Name": "Starlink Shell 3 1890",
        "Satellite Number": 1890,
        "Semi-Major Axis(m)": 6938478.169268562,
        "Time(s)": 950
    },
    {
        "Altitude(m)": 566070.4121288856,
        "Argument of Periapsis(deg)": -0.03806848131869037,
        "Eccentricity": 0.0,
        "Inclination(deg)": 97.0,
        "Latitude(deg)": 20.526802962255474,
        "Longitude(deg)": -131.34961731080344,
        "Mean Anomaly(deg)": 159.35601497968418,
        "RAAN(deg)": 150.01001609030487,
        "Satellite Name": "Starlink Shell 3 1890",
        "Satellite Number": 1890,
        "Semi-Major Axis(m)": 6938478.169268562,
        "Time(s)": 960
    },
    {
        "Altitude(m)": 566018.6736254436,
        "Argument of Periapsis(deg)": -0.0384650279990934,
        "Eccentricity": 0.0,
        "Inclination(deg)": 97.0,
        "Latitude(deg)": 19.903527721107718,
        "Longitude(deg)": -131.47781364161574,
        "Mean Anomaly(deg)": 159.98149117738922,
        "RAAN(deg)": 150.01012042457887,
        "Satellite Name": "Starlink Shell 3 1890",
        "Satellite Number": 1890,
        "Semi-Major Axis(m)": 6938478.169268562,
        "Time(s)": 970
    },
    {
        "Altitude(m)": 565970.5249951235,
        "Argument of Periapsis(deg)": -0.03886157467949641,
        "Eccentricity": 0.0,
        "Inclination(deg)": 97.0,
        "Latitude(deg)": 19.280169324026073,
        "Longitude(deg)": -131.60533693182754,
        "Mean Anomaly(deg)": 160.6069673750943,
        "RAAN(deg)": 150.0102247588529,
        "Satellite Name": "Starlink Shell 3 1890",
        "Satellite Number": 1890,
        "Semi-Major Axis(m)": 6938478.169268562,
        "Time(s)": 980
    },
    {
        "Altitude(m)": 565926.0170678771,
        "Argument of Periapsis(deg)": -0.03925812135989944,
        "Eccentricity": 0.0,
        "Inclination(deg)": 97.0,
        "Latitude(deg)": 18.656730984122692,
        "Longitude(deg)": -131.73221451502883,
        "Mean Anomaly(deg)": 161.23244357279933,
        "RAAN(deg)": 150.0103290931269,
        "Satellite Name": "Starlink Shell 3 1890",
        "Satellite Number": 1890,
        "Semi-Major Axis(m)": 6938478.169268562,
        "Time(s)": 990
    }
]